STARLINK-31561          
1 59352U 24060E   26068.53227136 -.00000079  00000+0  66345-5 0  9992
2 59352  42.9985 260.3254 0000666 172.8342 187.2519 15.27576343110042
HERMES-2                
1 63243U 25052AK  26068.92847372  .00009456  00000+0  34839-3 0  9999
2 63243  97.4004 324.4926 0006340  99.4160 260.7796 15.28021069 54859
